start=new Date('2021-11-22T00:00:00.000Z').valueOf();
sats=[{"LAUNCH_DATE":"2021-03-11","COUNTRY_CODE":"US","BSTAR":"0.00009340200000","TLE_LINE1":"1 47816U 21018AF  21325.48954209  .00001110  00000-0  93402-4 0  9997","RCS_SIZE":"LARGE","REF_FRAME":"TEME","REV_AT_EPOCH":"4007","MEAN_MOTION_DDOT":"0.0000000000000","OBJECT_NAME":"STARLINK-2399","RA_OF_ASC_NODE":"96.0289","EPOCH":"2021-11-21T11:44:56.436576","MEAN_ANOMALY":"274.0404","TIME_SYSTEM":"UTC","TLE_LINE2":"2 47816  53.0556  96.0289 0001164  86.0718 274.0404 15.06402011 40070","MEAN_MOTION":"15.06402011","PERIOD":"95.592","OBJECT_TYPE":"PAYLOAD","INCLINATION":"53.0556","APOAPSIS":"548.014","CENTER_NAME":"EARTH","MEAN_MOTION_DOT":"0.00001110","ECCENTRICITY":"0.00011640","MEAN_ELEMENT_THEORY":"SGP4","SEMIMAJOR_AXIS":"6925.342","DECAY_DATE":null,"ELEMENT_SET_NO":"999","FILE":"3220686","GP_ID":"190204986","NORAD_CAT_ID":"47816","SITE":"AFETR","OBJECT_ID":"2021-018AF","ARG_OF_PERICENTER":"86.0718","EPHEMERIS_TYPE":"0","PERIAPSIS":"546.401","CLASSIFICATION_TYPE":"U"},{"SITE":"AFETR","OBJECT_ID":"2021-018AG","ARG_OF_PERICENTER":"74.4968","EPHEMERIS_TYPE":"0","PERIAPSIS":"546.254","CLASSIFICATION_TYPE":"U","ECCENTRICITY":"0.00013960","MEAN_ELEMENT_THEORY":"SGP4","SEMIMAJOR_AXIS":"6925.356","DECAY_DATE":null,"ELEMENT_SET_NO":"999","FILE":"3220812","GP_ID":"190209031","NORAD_CAT_ID":"47817","EPOCH":"2021-11-21T16:58:06.851136","MEAN_ANOMALY":"285.6175","TIME_SYSTEM":"UTC","TLE_LINE2":"2 47817  53.0547  95.0442 0001396  74.4968 285.6175 15.06397501 39771","MEAN_MOTION":"15.06397501","PERIOD":"95.592","OBJECT_TYPE":"PAYLOAD","INCLINATION":"53.0547","APOAPSIS":"548.188","CENTER_NAME":"EARTH","MEAN_MOTION_DOT":"0.00001123","LAUNCH_DATE":"2021-03-11","COUNTRY_CODE":"US","BSTAR":"0.00009430400000","TLE_LINE1":"1 47817U 21018AG  21325.70702374  .00001123  00000-0  94304-4 0  9993","RCS_SIZE":"LARGE","REF_FRAME":"TEME","REV_AT_EPOCH":"3977","OBJECT_NAME":"STARLINK-2400","MEAN_MOTION_DDOT":"0.0000000000000","RA_OF_ASC_NODE":"95.0442"},{"SEMIMAJOR_AXIS":"6925.361","DECAY_DATE":null,"ECCENTRICITY":"0.00012900","MEAN_ELEMENT_THEORY":"SGP4","NORAD_CAT_ID":"47818","GP_ID":"190203485","FILE":"3220686","ELEMENT_SET_NO":"999","ARG_OF_PERICENTER":"83.5650","OBJECT_ID":"2021-018AH","SITE":"AFETR","CLASSIFICATION_TYPE":"U","EPHEMERIS_TYPE":"0","PERIAPSIS":"546.332","COUNTRY_CODE":"US","BSTAR":"0.00008948600000","LAUNCH_DATE":"2021-03-11","RA_OF_ASC_NODE":"101.7184","REV_AT_EPOCH":"3998","MEAN_MOTION_DDOT":"0.0000000000000","OBJECT_NAME":"STARLINK-2401","RCS_SIZE":"LARGE","REF_FRAME":"TEME","TLE_LINE1":"1 47818U 21018AH  21325.33612686  .00001052  00000-0  89486-4 0  9995","TLE_LINE2":"2 47818  53.0556 101.7184 0001290  83.5650 276.5486 15.06396049 39985","MEAN_MOTION":"15.06396049","MEAN_ANOMALY":"276.5486","TIME_SYSTEM":"UTC","EPOCH":"2021-11-21T08:04:01.360704","APOAPSIS":"548.119","CENTER_NAME":"EARTH","MEAN_MOTION_DOT":"0.00001052","OBJECT_TYPE":"PAYLOAD","INCLINATION":"53.0556","PERIOD":"95.592"},{"REF_FRAME":"TEME","RCS_SIZE":"MEDIUM","TLE_LINE1":"1 47819U 21018AJ  21325.51166626  .00001625  00000-0  12797-3 0  9990","RA_OF_ASC_NODE":"95.9445","MEAN_MOTION_DDOT":"0.0000000000000","OBJECT_NAME":"STARLINK-2402","REV_AT_EPOCH":"4014","LAUNCH_DATE":"2021-03-11","BSTAR":"0.00012797000000","COUNTRY_CODE":"US","PERIOD":"95.592","MEAN_MOTION_DOT":"0.00001625","APOAPSIS":"548.205","CENTER_NAME":"EARTH","INCLINATION":"53.0573","OBJECT_TYPE":"PAYLOAD","EPOCH":"2021-11-21T12:16:47.964864","MEAN_MOTION":"15.06401081","TLE_LINE2":"2 47819  53.0573  95.9445 0001436  86.7396 273.3757 15.06401081 40142","TIME_SYSTEM":"UTC","MEAN_ANOMALY":"273.3757","FILE":"3220686","ELEMENT_SET_NO":"999","NORAD_CAT_ID":"47819","GP_ID":"190203735","DECAY_DATE":null,"SEMIMAJOR_AXIS":"6925.345","MEAN_ELEMENT_THEORY":"SGP4","ECCENTRICITY":"0.00014360","PERIAPSIS":"546.216","EPHEMERIS_TYPE":"0","CLASSIFICATION_TYPE":"U","SITE":"AFETR","ARG_OF_PERICENTER":"86.7396","OBJECT_ID":"2021-018AJ"},{"SEMIMAJOR_AXIS":"6925.338","DECAY_DATE":null,"ECCENTRICITY":"0.00015960","MEAN_ELEMENT_THEORY":"SGP4","NORAD_CAT_ID":"47820","GP_ID":"190204486","FILE":"3220686","ELEMENT_SET_NO":"999","ARG_OF_PERICENTER":"77.6491","OBJECT_ID":"2021-018AK","SITE":"AFETR","CLASSIFICATION_TYPE":"U","EPHEMERIS_TYPE":"0","PERIAPSIS":"546.098","COUNTRY_CODE":"US","BSTAR":"0.00008334000000","LAUNCH_DATE":"2021-03-11","RA_OF_ASC_NODE":"106.0225","REV_AT_EPOCH":"3999","OBJECT_NAME":"STARLINK-2403","MEAN_MOTION_DDOT":"0.0000000000000","RCS_SIZE":"LARGE","REF_FRAME":"TEME","TLE_LINE1":"1 47820U 21018AK  21325.49232870  .00000960  00000-0  83340-4 0  9998","TLE_LINE2":"2 47820  53.0557 106.0225 0001596  77.6491 282.4677 15.06403337 39997","MEAN_MOTION":"15.06403337","MEAN_ANOMALY":"282.4677","TIME_SYSTEM":"UTC","EPOCH":"2021-11-21T11:48:57.199680","CENTER_NAME":"EARTH","APOAPSIS":"548.309","MEAN_MOTION_DOT":"0.00000960","INCLINATION":"53.0557","OBJECT_TYPE":"PAYLOAD","PERIOD":"95.592"},{"CLASSIFICATION_TYPE":"U","EPHEMERIS_TYPE":"0","PERIAPSIS":"546.265","OBJECT_ID":"2021-018AL","ARG_OF_PERICENTER":"73.3821","SITE":"AFETR","GP_ID":"190209106","NORAD_CAT_ID":"47821","ELEMENT_SET_NO":"999","FILE":"3220816","ECCENTRICITY":"0.00013910","MEAN_ELEMENT_THEORY":"SGP4","SEMIMAJOR_AXIS":"6925.363","DECAY_DATE":null,"INCLINATION":"53.0564","OBJECT_TYPE":"PAYLOAD","APOAPSIS":"548.191","CENTER_NAME":"EARTH","MEAN_MOTION_DOT":"-0.00000482","PERIOD":"95.592","MEAN_ANOMALY":"286.7320","TIME_SYSTEM":"UTC","TLE_LINE2":"2 47821  53.0564  94.9355 0001391  73.3821 286.7320 15.06395267 39789","MEAN_MOTION":"15.06395267","EPOCH":"2021-11-21T17:39:13.051008","REV_AT_EPOCH":"3978","OBJECT_NAME":"STARLINK-2406","MEAN_MOTION_DDOT":"0.0000000000000","RA_OF_ASC_NODE":"94.9355","TLE_LINE1":"1 47821U 21018AL  21325.73556772 -.00000482  00000-0 -13475-4 0  9999","RCS_SIZE":"LARGE","REF_FRAME":"TEME","COUNTRY_CODE":"US","BSTAR":"-0.00001347500000","LAUNCH_DATE":"2021-03-11"},{"TLE_LINE1":"1 47822U 21018AM  21325.74664767  .00001125  00000-0  94427-4 0  9994","RCS_SIZE":"LARGE","REF_FRAME":"TEME","REV_AT_EPOCH":"3964","MEAN_MOTION_DDOT":"0.0000000000000","OBJECT_NAME":"STARLINK-2407","RA_OF_ASC_NODE":"104.8709","LAUNCH_DATE":"2021-03-11","COUNTRY_CODE":"US","BSTAR":"0.00009442700000","PERIOD":"95.592","INCLINATION":"53.0554","OBJECT_TYPE":"PAYLOAD","CENTER_NAME":"EARTH","APOAPSIS":"548.207","MEAN_MOTION_DOT":"0.00001125","EPOCH":"2021-11-21T17:55:10.358688","MEAN_ANOMALY":"276.8985","TIME_SYSTEM":"UTC","TLE_LINE2":"2 47822  53.0554 104.8709 0001456  83.2170 276.8985 15.06405012 39644","MEAN_MOTION":"15.06405012","ELEMENT_SET_NO":"999","FILE":"3220743","GP_ID":"190207197","NORAD_CAT_ID":"47822","ECCENTRICITY":"0.00014560","MEAN_ELEMENT_THEORY":"SGP4","SEMIMAJOR_AXIS":"6925.333","DECAY_DATE":null,"EPHEMERIS_TYPE":"0","PERIAPSIS":"546.190","CLASSIFICATION_TYPE":"U","SITE":"AFETR","OBJECT_ID":"2021-018AM","ARG_OF_PERICENTER":"83.2170"},{"PERIOD":"95.592","INCLINATION":"53.0558","OBJECT_TYPE":"PAYLOAD","MEAN_MOTION_DOT":"-0.00000630","CENTER_NAME":"EARTH","APOAPSIS":"548.210","EPOCH":"2021-11-21T10:20:02.014368","TIME_SYSTEM":"UTC","MEAN_ANOMALY":"287.3294","MEAN_MOTION":"15.06398380","TLE_LINE2":"2 47823  53.0558  96.2977 0001431  72.7852 287.3294 15.06398380 40071","TLE_LINE1":"1 47823U 21018AN  21325.43057887 -.00000630  00000-0 -23422-4 0  9999","REF_FRAME":"TEME","RCS_SIZE":"LARGE","MEAN_MOTION_DDOT":"0.0000000000000","OBJECT_NAME":"STARLINK-2408","REV_AT_EPOCH":"4007","RA_OF_ASC_NODE":"96.2977","LAUNCH_DATE":"2021-03-11","BSTAR":"-0.00002342200000","COUNTRY_CODE":"US","PERIAPSIS":"546.228","EPHEMERIS_TYPE":"0","CLASSIFICATION_TYPE":"U","SITE":"AFETR","OBJECT_ID":"2021-018AN","ARG_OF_PERICENTER":"72.7852","ELEMENT_SET_NO":"999","FILE":"3220686","GP_ID":"190204236","NORAD_CAT_ID":"47823","MEAN_ELEMENT_THEORY":"SGP4","ECCENTRICITY":"0.00014310","DECAY_DATE":null,"SEMIMAJOR_AXIS":"6925.354"},{"LAUNCH_DATE":"2021-03-11","COUNTRY_CODE":"US","BSTAR":"-0.00000650650000","RCS_SIZE":"LARGE","REF_FRAME":"TEME","TLE_LINE1":"1 47824U 21018AP  21325.48587247 -.00000378  00000-0 -65065-5 0  9992","RA_OF_ASC_NODE":"96.0567","REV_AT_EPOCH":"4007","OBJECT_NAME":"STARLINK-2409","MEAN_MOTION_DDOT":"0.0000000000000","EPOCH":"2021-11-21T11:39:39.381408","MEAN_MOTION":"15.06397822","TLE_LINE2":"2 47824  53.0543  96.0567 0001178  77.2038 282.9083 15.06397822 40070","MEAN_ANOMALY":"282.9083","TIME_SYSTEM":"UTC","PERIOD":"95.592","CENTER_NAME":"EARTH","APOAPSIS":"548.036","MEAN_MOTION_DOT":"-0.00000378","INCLINATION":"53.0543","OBJECT_TYPE":"PAYLOAD","SEMIMAJOR_AXIS":"6925.355","DECAY_DATE":null,"ECCENTRICITY":"0.00011780","MEAN_ELEMENT_THEORY":"SGP4","FILE":"3220686","ELEMENT_SET_NO":"999","NORAD_CAT_ID":"47824","GP_ID":"190204987","SITE":"AFETR","ARG_OF_PERICENTER":"77.2038","OBJECT_ID":"2021-018AP","EPHEMERIS_TYPE":"0","PERIAPSIS":"546.404","CLASSIFICATION_TYPE":"U"},{"RA_OF_ASC_NODE":"96.2505","REV_AT_EPOCH":"4007","MEAN_MOTION_DDOT":"0.0000000000000","OBJECT_NAME":"STARLINK-2410","RCS_SIZE":"LARGE","REF_FRAME":"TEME","TLE_LINE1":"1 47825U 21018AQ  21325.43795027 -.00000388  00000-0 -71461-5 0  9993","COUNTRY_CODE":"US","BSTAR":"-0.00000714610000","LAUNCH_DATE":"2021-03-11","APOAPSIS":"548.184","CENTER_NAME":"EARTH","MEAN_MOTION_DOT":"-0.00000388","INCLINATION":"53.0566","OBJECT_TYPE":"PAYLOAD","PERIOD":"95.592","TLE_LINE2":"2 47825  53.0566  96.2505 0001398  96.9634 263.1514 15.06399218 40075","MEAN_MOTION":"15.06399218","MEAN_ANOMALY":"263.1514","TIME_SYSTEM":"UTC","EPOCH":"2021-11-21T10:30:38.903328","NORAD_CAT_ID":"47825","GP_ID":"190204733","FILE":"3220686","ELEMENT_SET_NO":"999","SEMIMAJOR_AXIS":"6925.351","DECAY_DATE":null,"ECCENTRICITY":"0.00013980","MEAN_ELEMENT_THEORY":"SGP4","CLASSIFICATION_TYPE":"U","EPHEMERIS_TYPE":"0","PERIAPSIS":"546.248","ARG_OF_PERICENTER":"96.9634","OBJECT_ID":"2021-018AQ","SITE":"AFETR"}];
